CCSDS_OMM_VERS = 2.0
CREATION_DATE  = 
ORIGINATOR     = 

OBJECT_NAME    = SL-16 R/B
OBJECT_ID      = 1993-016B
CENTER_NAME    = EARTH
REF_FRAME      = TEME
TIME_SYSTEM    = UTC
MEAN_ELEMENT_THEORY = SGP/SGP4

EPOCH          = 2026-02-28T22:41:12.893568
MEAN_MOTION    = 14.15303221
ECCENTRICITY   = .00111848
INCLINATION    = 71.0052
RA_OF_ASC_NODE = 233.5474
ARG_OF_PERICENTER = 326.4891
MEAN_ANOMALY   = 33.5523

EPHEMERIS_TYPE = 0
CLASSIFICATION_TYPE = U
NORAD_CAT_ID   = 22566
ELEMENT_SET_NO = 999
REV_AT_EPOCH   = 70093
BSTAR          = .19387009E-3
MEAN_MOTION_DOT = .33E-5
MEAN_MOTION_DDOT = 0

CCSDS_OMM_VERS = 2.0
CREATION_DATE  = 
ORIGINATOR     = 

OBJECT_NAME    = COSMOS 2242
OBJECT_ID      = 1993-024A
CENTER_NAME    = EARTH
REF_FRAME      = TEME
TIME_SYSTEM    = UTC
MEAN_ELEMENT_THEORY = SGP/SGP4

EPOCH          = 2026-02-28T16:13:49.817856
MEAN_MOTION    = 14.96505915
ECCENTRICITY   = .00158762
INCLINATION    = 82.5161
RA_OF_ASC_NODE = 275.3397
ARG_OF_PERICENTER = 341.0007
MEAN_ANOMALY   = 19.0621

EPHEMERIS_TYPE = 0
CLASSIFICATION_TYPE = U
NORAD_CAT_ID   = 22626
ELEMENT_SET_NO = 999
REV_AT_EPOCH   = 77904
BSTAR          = .17404977E-3
MEAN_MOTION_DOT = .2007E-4
MEAN_MOTION_DDOT = 0

CCSDS_OMM_VERS = 2.0
CREATION_DATE  = 
ORIGINATOR     = 

OBJECT_NAME    = SL-16 R/B
OBJECT_ID      = 1993-059B
CENTER_NAME    = EARTH
REF_FRAME      = TEME
TIME_SYSTEM    = UTC
MEAN_ELEMENT_THEORY = SGP/SGP4

EPOCH          = 2026-02-28T22:28:40.284768
MEAN_MOTION    = 14.17231307
ECCENTRICITY   = .00188855
INCLINATION    = 70.9912
RA_OF_ASC_NODE = 29.5837
ARG_OF_PERICENTER = 228.7278
MEAN_ANOMALY   = 131.2220

EPHEMERIS_TYPE = 0
CLASSIFICATION_TYPE = U
NORAD_CAT_ID   = 22803
ELEMENT_SET_NO = 999
REV_AT_EPOCH   = 67829
BSTAR          = .11867579E-3
MEAN_MOTION_DOT = .192E-5
MEAN_MOTION_DDOT = 0

CCSDS_OMM_VERS = 2.0
CREATION_DATE  = 
ORIGINATOR     = 

OBJECT_NAME    = ARIANE 40 R/B
OBJECT_ID      = 1993-061H
CENTER_NAME    = EARTH
REF_FRAME      = TEME
TIME_SYSTEM    = UTC
MEAN_ELEMENT_THEORY = SGP/SGP4

EPOCH          = 2026-02-28T18:14:46.139136
MEAN_MOTION    = 14.32855372
ECCENTRICITY   = .00097366
INCLINATION    = 98.4937
RA_OF_ASC_NODE = 128.8235
ARG_OF_PERICENTER = 314.5434
MEAN_ANOMALY   = 45.4954

EPHEMERIS_TYPE = 0
CLASSIFICATION_TYPE = U
NORAD_CAT_ID   = 22830
ELEMENT_SET_NO = 999
REV_AT_EPOCH   = 69282
BSTAR          = .9320935E-4
MEAN_MOTION_DOT = .211E-5
MEAN_MOTION_DDOT = 0

CCSDS_OMM_VERS = 2.0
CREATION_DATE  = 
ORIGINATOR     = 

OBJECT_NAME    = COSMOS 2278
OBJECT_ID      = 1994-023A
CENTER_NAME    = EARTH
REF_FRAME      = TEME
TIME_SYSTEM    = UTC
MEAN_ELEMENT_THEORY = SGP/SGP4

EPOCH          = 2026-02-28T19:52:16.923360
MEAN_MOTION    = 14.14373294
ECCENTRICITY   = .00075401
INCLINATION    = 71.0536
RA_OF_ASC_NODE = 193.6356
ARG_OF_PERICENTER = 31.2671
MEAN_ANOMALY   = 328.8899

EPHEMERIS_TYPE = 0
CLASSIFICATION_TYPE = U
NORAD_CAT_ID   = 23087
ELEMENT_SET_NO = 999
REV_AT_EPOCH   = 64355
BSTAR          = .21605084E-3
MEAN_MOTION_DOT = .366E-5
MEAN_MOTION_DDOT = 0

CCSDS_OMM_VERS = 2.0
CREATION_DATE  = 
ORIGINATOR     = 

OBJECT_NAME    = SL-16 R/B
OBJECT_ID      = 1994-023B
CENTER_NAME    = EARTH
REF_FRAME      = TEME
TIME_SYSTEM    = UTC
MEAN_ELEMENT_THEORY = SGP/SGP4

EPOCH          = 2026-02-28T12:35:57.700032
MEAN_MOTION    = 14.15013402
ECCENTRICITY   = .00054737
INCLINATION    = 70.9987
RA_OF_ASC_NODE = 90.1355
ARG_OF_PERICENTER = 294.4161
MEAN_ANOMALY   = 65.6390

EPHEMERIS_TYPE = 0
CLASSIFICATION_TYPE = U
NORAD_CAT_ID   = 23088
ELEMENT_SET_NO = 999
REV_AT_EPOCH   = 64479
BSTAR          = .19883913E-4
MEAN_MOTION_DOT = -.9E-7
MEAN_MOTION_DDOT = 0

CCSDS_OMM_VERS = 2.0
CREATION_DATE  = 
ORIGINATOR     = 

OBJECT_NAME    = SL-16 R/B
OBJECT_ID      = 1994-074B
CENTER_NAME    = EARTH
REF_FRAME      = TEME
TIME_SYSTEM    = UTC
MEAN_ELEMENT_THEORY = SGP/SGP4

EPOCH          = 2026-02-28T16:08:27.965760
MEAN_MOTION    = 14.79395584
ECCENTRICITY   = .0005227
INCLINATION    = 97.7122
RA_OF_ASC_NODE = 90.8551
ARG_OF_PERICENTER = 245.4987
MEAN_ANOMALY   = 229.0130

EPHEMERIS_TYPE = 0
CLASSIFICATION_TYPE = U
NORAD_CAT_ID   = 23343
ELEMENT_SET_NO = 999
REV_AT_EPOCH   = 68591
BSTAR          = .78114873E-4
MEAN_MOTION_DOT = .533E-5
MEAN_MOTION_DDOT = 0

CCSDS_OMM_VERS = 2.0
CREATION_DATE  = 
ORIGINATOR     = 

OBJECT_NAME    = SL-16 R/B
OBJECT_ID      = 1994-077B
CENTER_NAME    = EARTH
REF_FRAME      = TEME
TIME_SYSTEM    = UTC
MEAN_ELEMENT_THEORY = SGP/SGP4

EPOCH          = 2026-02-28T22:25:09.669216
MEAN_MOTION    = 14.15563172
ECCENTRICITY   = .0003557
INCLINATION    = 70.9849
RA_OF_ASC_NODE = 10.9072
ARG_OF_PERICENTER = 223.3244
MEAN_ANOMALY   = 136.7599

EPHEMERIS_TYPE = 0
CLASSIFICATION_TYPE = U
NORAD_CAT_ID   = 23405
ELEMENT_SET_NO = 999
REV_AT_EPOCH   = 61499
BSTAR          = -.93527989E-4
MEAN_MOTION_DOT = -.231E-5
MEAN_MOTION_DDOT = 0

CCSDS_OMM_VERS = 2.0
CREATION_DATE  = 
ORIGINATOR     = 

OBJECT_NAME    = ARIANE 40+ R/B
OBJECT_ID      = 1995-021B
CENTER_NAME    = EARTH
REF_FRAME      = TEME
TIME_SYSTEM    = UTC
MEAN_ELEMENT_THEORY = SGP/SGP4

EPOCH          = 2026-02-28T19:00:29.581056
MEAN_MOTION    = 14.39764792
ECCENTRICITY   = .00072518
INCLINATION    = 98.4516
RA_OF_ASC_NODE = 131.3945
ARG_OF_PERICENTER = 160.2065
MEAN_ANOMALY   = 310.8929

EPHEMERIS_TYPE = 0
CLASSIFICATION_TYPE = U
NORAD_CAT_ID   = 23561
ELEMENT_SET_NO = 999
REV_AT_EPOCH   = 61796
BSTAR          = .11114753E-3
MEAN_MOTION_DOT = .305E-5
MEAN_MOTION_DDOT = 0

CCSDS_OMM_VERS = 2.0
CREATION_DATE  = 
ORIGINATOR     = 

OBJECT_NAME    = SL-16 R/B
OBJECT_ID      = 1995-058B
CENTER_NAME    = EARTH
REF_FRAME      = TEME
TIME_SYSTEM    = UTC
MEAN_ELEMENT_THEORY = SGP/SGP4

EPOCH          = 2026-02-28T19:11:05.090208
MEAN_MOTION    = 14.15492891
ECCENTRICITY   = .00110738
INCLINATION    = 71.0208
RA_OF_ASC_NODE = 198.9183
ARG_OF_PERICENTER = 141.5555
MEAN_ANOMALY   = 218.6359

EPHEMERIS_TYPE = 0
CLASSIFICATION_TYPE = U
NORAD_CAT_ID   = 23705
ELEMENT_SET_NO = 999
REV_AT_EPOCH   = 56659
BSTAR          = -.61507515E-4
MEAN_MOTION_DOT = -.168E-5
MEAN_MOTION_DDOT = 0

CCSDS_OMM_VERS = 2.0
CREATION_DATE  = 
ORIGINATOR     = 

OBJECT_NAME    = SL-16 R/B
OBJECT_ID      = 1996-051B
CENTER_NAME    = EARTH
REF_FRAME      = TEME
TIME_SYSTEM    = UTC
MEAN_ELEMENT_THEORY = SGP/SGP4

EPOCH          = 2026-02-28T19:37:19.788096
MEAN_MOTION    = 14.12412950
ECCENTRICITY   = .00158803
INCLINATION    = 70.7591
RA_OF_ASC_NODE = 194.0161
ARG_OF_PERICENTER = 161.0048
MEAN_ANOMALY   = 199.1668

EPHEMERIS_TYPE = 0
CLASSIFICATION_TYPE = U
NORAD_CAT_ID   = 24298
ELEMENT_SET_NO = 999
REV_AT_EPOCH   = 52039
BSTAR          = .65300311E-4
MEAN_MOTION_DOT = .71E-6
MEAN_MOTION_DDOT = 0

CCSDS_OMM_VERS = 2.0
CREATION_DATE  = 
ORIGINATOR     = 

OBJECT_NAME    = ORBVIEW 2 (SEASTAR)
OBJECT_ID      = 1997-037A
CENTER_NAME    = EARTH
REF_FRAME      = TEME
TIME_SYSTEM    = UTC
MEAN_ELEMENT_THEORY = SGP/SGP4

EPOCH          = 2026-02-28T21:56:28.398048
MEAN_MOTION    = 14.35486793
ECCENTRICITY   = .0003214
INCLINATION    = 98.8551
RA_OF_ASC_NODE = 223.9943
ARG_OF_PERICENTER = 89.7027
MEAN_ANOMALY   = 270.4526

EPHEMERIS_TYPE = 0
CLASSIFICATION_TYPE = U
NORAD_CAT_ID   = 24883
ELEMENT_SET_NO = 999
REV_AT_EPOCH   = 50721
BSTAR          = .13346725E-3
MEAN_MOTION_DOT = .337E-5
MEAN_MOTION_DDOT = 0

